{
  "type": "FeatureCollection",
  "features": [
    {
      "type": "Feature",
      "properties": {
        "norad_id": 66909,
        "name": "SILVERSAT",
        "group": "stations",
        "lat": 51.43202006580446,
        "lon": -119.89356853869796,
        "alt_km": 407.0976864158474,
        "timestamp": "2025-12-12T11:38:30.189963+00:00",
        "meta_object_name": "SILVERSAT",
        "meta_object_id": "1998-067XV",
        "meta_epoch": "2025-12-11T19:46:46.158240",
        "meta_mean_motion": 15.51450033,
        "meta_eccentricity": 0.00045562,
        "meta_inclination": 51.63,
        "meta_ra_of_asc_node": 146.926,
        "meta_arg_of_pericenter": 222.0234,
        "meta_mean_anomaly": 138.0406,
        "meta_ephemeris_type": 0,
        "meta_classification_type": "U",
        "meta_norad_cat_id": 66909,
        "meta_element_set_no": 999,
        "meta_rev_at_epoch": 147,
        "meta_bstar": 0.0013718352,
        "meta_mean_motion_dot": 0.00082864,
        "meta_mean_motion_ddot": 0,
        "tle_line1": "1 66909U 98067XV  25345.82414535  .00082864  00000+0  13718-2 0  9990",
        "tle_line2": "2 66909  51.6300 146.9260 0004556 222.0234 138.0406 15.51450033  1471"
      },
      "geometry": {
        "type": "Point",
        "coordinates": [
          -119.89356853869796,
          51.43202006580446
        ]
      }
    },
    {
      "type": "Feature",
      "properties": {
        "norad_id": 66910,
        "name": "1998-067XW",
        "group": "stations",
        "lat": 49.993381936863955,
        "lon": -107.11308256498457,
        "alt_km": 405.80798550139025,
        "timestamp": "2025-12-12T11:38:30.189973+00:00",
        "meta_object_name": "1998-067XW",
        "meta_object_id": "1998-067XW",
        "meta_epoch": "2025-12-12T00:22:58.433376",
        "meta_mean_motion": 15.51622834,
        "meta_eccentricity": 0.0005377,
        "meta_inclination": 51.6296,
        "meta_ra_of_asc_node": 145.9572,
        "meta_arg_of_pericenter": 204.7962,
        "meta_mean_anomaly": 155.277,
        "meta_ephemeris_type": 0,
        "meta_classification_type": "U",
        "meta_norad_cat_id": 66910,
        "meta_element_set_no": 999,
        "meta_rev_at_epoch": 150,
        "meta_bstar": 0.0012086,
        "meta_mean_motion_dot": 0.00073325,
        "meta_mean_motion_ddot": 0,
        "tle_line1": "1 66910U 98067XW  25346.01595409  .00073325  00000+0  12086-2 0  9993",
        "tle_line2": "2 66910  51.6296 145.9572 0005377 204.7962 155.2770 15.51622834  1508"
      },
      "geometry": {
        "type": "Point",
        "coordinates": [
          -107.11308256498457,
          49.993381936863955
        ]
      }
    },
    {
      "type": "Feature",
      "properties": {
        "norad_id": 66911,
        "name": "1998-067XX",
        "group": "stations",
        "lat": 48.877958630262434,
        "lon": -101.55029050511057,
        "alt_km": 405.0543243732227,
        "timestamp": "2025-12-12T11:38:30.189983+00:00",
        "meta_object_name": "1998-067XX",
        "meta_object_id": "1998-067XX",
        "meta_epoch": "2025-12-12T03:27:33.882624",
        "meta_mean_motion": 15.51877198,
        "meta_eccentricity": 0.0005044,
        "meta_inclination": 51.6295,
        "meta_ra_of_asc_node": 145.3134,
        "meta_arg_of_pericenter": 206.7982,
        "meta_mean_anomaly": 153.2747,
        "meta_ephemeris_type": 0,
        "meta_classification_type": "U",
        "meta_norad_cat_id": 66911,
        "meta_element_set_no": 999,
        "meta_rev_at_epoch": 151,
        "meta_bstar": 0.0015038,
        "meta_mean_motion_dot": 0.00092403,
        "meta_mean_motion_ddot": 0,
        "tle_line1": "1 66911U 98067XX  25346.14414216  .00092403  00000+0  15038-2 0  9992",
        "tle_line2": "2 66911  51.6295 145.3134 0005044 206.7982 153.2747 15.51877198  1519"
      },
      "geometry": {
        "type": "Point",
        "coordinates": [
          -101.55029050511057,
          48.877958630262434
        ]
      }
    },
    {
      "type": "Feature",
      "properties": {
        "norad_id": 66912,
        "name": "1998-067XY",
        "group": "stations",
        "lat": 51.35910454310587,
        "lon": -134.01544868419123,
        "alt_km": 408.7474653060299,
        "timestamp": "2025-12-12T11:38:30.189997+00:00",
        "meta_object_name": "1998-067XY",
        "meta_object_id": "1998-067XY",
        "meta_epoch": "2025-12-11T19:48:45.131904",
        "meta_mean_motion": 15.51001955,
        "meta_eccentricity": 0.00047052,
        "meta_inclination": 51.6304,
        "meta_ra_of_asc_node": 146.936,
        "meta_arg_of_pericenter": 217.5082,
        "meta_mean_anomaly": 142.5579,
        "meta_ephemeris_type": 0,
        "meta_classification_type": "U",
        "meta_norad_cat_id": 66912,
        "meta_element_set_no": 999,
        "meta_rev_at_epoch": 146,
        "meta_bstar": 0.00099420433,
        "meta_mean_motion_dot": 0.0005879,
        "meta_mean_motion_ddot": 0,
        "tle_line1": "1 66912U 98067XY  25345.82552236  .00058790  00000+0  99420-3 0  9991",
        "tle_line2": "2 66912  51.6304 146.9360 0004705 217.5082 142.5579 15.51001955  1461"
      },
      "geometry": {
        "type": "Point",
        "coordinates": [
          -134.01544868419123,
          51.35910454310587
        ]
      }
    }
  ]
}